[{"OBJECT_NAME":"STARLINK-31218","OBJECT_ID":"2024-020V","EPOCH":"2026-03-09T23:32:55.829472","MEAN_MOTION":15.30169618,"ECCENTRICITY":0.00015152,"INCLINATION":53.1589,"RA_OF_ASC_NODE":321.2154,"ARG_OF_PERICENTER":123.2578,"MEAN_ANOMALY":236.8568,"EPHEMERIS_TYPE":0,"CLASSIFICATION_TYPE":"U","NORAD_CAT_ID":58895,"ELEMENT_SET_NO":999,"REV_AT_EPOCH":11811,"BSTAR":-0.00073690785,"MEAN_MOTION_DOT":-0.000221,"MEAN_MOTION_DDOT":0},{"OBJECT_NAME":"CZ-6A DEB","OBJECT_ID":"2022-151DE","EPOCH":"2026-03-09T09:45:43.657920","MEAN_MOTION":15.34292219,"ECCENTRICITY":0.00393756,"INCLINATION":99.0022,"RA_OF_ASC_NODE":218.5596,"ARG_OF_PERICENTER":192.6197,"MEAN_ANOMALY":167.4059,"EPHEMERIS_TYPE":0,"CLASSIFICATION_TYPE":"U","NORAD_CAT_ID":54359,"ELEMENT_SET_NO":999,"REV_AT_EPOCH":10560,"BSTAR":0.0065240017,"MEAN_MOTION_DOT":0.00228186,"MEAN_MOTION_DDOT":0}]
